STARLINK-36543          
1 67515U 26012Y   26043.83335647 -.01959372  00000+0 -41814-1 0  9995
2 67515  43.0004  95.2646 0001554 274.1983 124.2124 15.47358980  5010
STARLINK-36537          
1 67516U 26012Z   26043.83335647 -.01909304  00000+0 -40523-1 0  9992
2 67516  43.0009  95.0962 0001721 280.8578 185.8571 15.47428593  5012
STARLINK-36544          
1 67517U 26012AA  26043.83335647 -.01890372  00000+0 -42724-1 0  9992
2 67517  42.9998  95.0700 0001531 288.2384 189.6508 15.45595813  5070
STARLINK-36412          
1 67518U 26012AB  26043.83335647 -.01976779  00000+0 -37743-1 0  9994
2 67518  43.0008  95.0340 0000953 272.0462 219.2098 15.50527143  5015
STARLINK-36415          
1 67519U 26012AC  26043.83335647 -.01132514  00000+0 -21222-1 0  9991
2 67519  43.0007  95.0033 0000796 301.2633 201.7754 15.50833040  5239
STARLINK-36547          
1 67520U 26012AD  26043.83335647 -.01963323  00000+0 -38093-1 0  9997
2 67520  43.0008  95.0572 0001587 287.4558 194.1794 15.50051443  5014
STARLINK-36444          
1 67521U 26012AE  26043.83335647 -.01286095  00000+0 -23875-1 0  9994
2 67521  43.0003  95.1824 0001325 298.0338 132.8176 15.50985234  5012
HULIANWANG DIGUI-146    
1 67522U 26013A   26042.34729179 -.00000041  00000+0  98639-4 0  9994
2 67522  50.0087  93.2680 0003231 354.9738   5.1123 13.78804724  3212
HULIANWANG DIGUI-147    
1 67523U 26013B   26043.07076712 -.00000042  00000+0  98544-4 0  9990
2 67523  50.0049  90.4143 0001427  24.4462 335.6498 13.78106281  3312
HULIANWANG DIGUI-148    
1 67524U 26013C   26043.13851483 -.00000027  00000+0  11329-3 0  9992
2 67524  50.0082  90.1254 0000400 334.8113  25.2761 13.78242664  3323
HULIANWANG DIGUI-149    
1 67525U 26013D   26043.06238326 -.00000033  00000+0  10607-3 0  9995
2 67525  50.0083  90.3862 0001188  75.5776 284.5250 13.78784861  3312
HULIANWANG DIGUI-150    
1 67526U 26013E   26043.27295651 -.00000038  00000+0  10159-3 0  9990
2 67526  50.0069  89.4842 0002156   6.5718 353.5203 13.78631848  3366
