CCSDS_OMM_VERS = 2.0
CREATION_DATE  = 
ORIGINATOR     = 

OBJECT_NAME    = STARLINK-36543
OBJECT_ID      = 2026-012Y
CENTER_NAME    = EARTH
REF_FRAME      = TEME
TIME_SYSTEM    = UTC
MEAN_ELEMENT_THEORY = SGP/SGP4

EPOCH          = 2026-02-12T20:00:01.999008
MEAN_MOTION    = 15.47358980
ECCENTRICITY   = .0001554
INCLINATION    = 43.0004
RA_OF_ASC_NODE = 95.2646
ARG_OF_PERICENTER = 274.1983
MEAN_ANOMALY   = 124.2124

EPHEMERIS_TYPE = 0
CLASSIFICATION_TYPE = U
NORAD_CAT_ID   = 67515
ELEMENT_SET_NO = 999
REV_AT_EPOCH   = 501
BSTAR          = -.41814E-1
MEAN_MOTION_DOT = -.1959372E-1
MEAN_MOTION_DDOT = 0

CCSDS_OMM_VERS = 2.0
CREATION_DATE  = 
ORIGINATOR     = 

OBJECT_NAME    = STARLINK-36537
OBJECT_ID      = 2026-012Z
CENTER_NAME    = EARTH
REF_FRAME      = TEME
TIME_SYSTEM    = UTC
MEAN_ELEMENT_THEORY = SGP/SGP4

EPOCH          = 2026-02-12T20:00:01.999008
MEAN_MOTION    = 15.47428593
ECCENTRICITY   = .0001721
INCLINATION    = 43.0009
RA_OF_ASC_NODE = 95.0962
ARG_OF_PERICENTER = 280.8578
MEAN_ANOMALY   = 185.8571

EPHEMERIS_TYPE = 0
CLASSIFICATION_TYPE = U
NORAD_CAT_ID   = 67516
ELEMENT_SET_NO = 999
REV_AT_EPOCH   = 501
BSTAR          = -.40523E-1
MEAN_MOTION_DOT = -.1909304E-1
MEAN_MOTION_DDOT = 0

CCSDS_OMM_VERS = 2.0
CREATION_DATE  = 
ORIGINATOR     = 

OBJECT_NAME    = STARLINK-36544
OBJECT_ID      = 2026-012AA
CENTER_NAME    = EARTH
REF_FRAME      = TEME
TIME_SYSTEM    = UTC
MEAN_ELEMENT_THEORY = SGP/SGP4

EPOCH          = 2026-02-12T20:00:01.999008
MEAN_MOTION    = 15.45595813
ECCENTRICITY   = .0001531
INCLINATION    = 42.9998
RA_OF_ASC_NODE = 95.0700
ARG_OF_PERICENTER = 288.2384
MEAN_ANOMALY   = 189.6508

EPHEMERIS_TYPE = 0
CLASSIFICATION_TYPE = U
NORAD_CAT_ID   = 67517
ELEMENT_SET_NO = 999
REV_AT_EPOCH   = 507
BSTAR          = -.42724E-1
MEAN_MOTION_DOT = -.1890372E-1
MEAN_MOTION_DDOT = 0

CCSDS_OMM_VERS = 2.0
CREATION_DATE  = 
ORIGINATOR     = 

OBJECT_NAME    = STARLINK-36412
OBJECT_ID      = 2026-012AB
CENTER_NAME    = EARTH
REF_FRAME      = TEME
TIME_SYSTEM    = UTC
MEAN_ELEMENT_THEORY = SGP/SGP4

EPOCH          = 2026-02-12T20:00:01.999008
MEAN_MOTION    = 15.50527143
ECCENTRICITY   = .0000953
INCLINATION    = 43.0008
RA_OF_ASC_NODE = 95.0340
ARG_OF_PERICENTER = 272.0462
MEAN_ANOMALY   = 219.2098

EPHEMERIS_TYPE = 0
CLASSIFICATION_TYPE = U
NORAD_CAT_ID   = 67518
ELEMENT_SET_NO = 999
REV_AT_EPOCH   = 501
BSTAR          = -.37743E-1
MEAN_MOTION_DOT = -.1976779E-1
MEAN_MOTION_DDOT = 0

CCSDS_OMM_VERS = 2.0
CREATION_DATE  = 
ORIGINATOR     = 

OBJECT_NAME    = STARLINK-36415
OBJECT_ID      = 2026-012AC
CENTER_NAME    = EARTH
REF_FRAME      = TEME
TIME_SYSTEM    = UTC
MEAN_ELEMENT_THEORY = SGP/SGP4

EPOCH          = 2026-02-12T20:00:01.999008
MEAN_MOTION    = 15.50833040
ECCENTRICITY   = .0000796
INCLINATION    = 43.0007
RA_OF_ASC_NODE = 95.0033
ARG_OF_PERICENTER = 301.2633
MEAN_ANOMALY   = 201.7754

EPHEMERIS_TYPE = 0
CLASSIFICATION_TYPE = U
NORAD_CAT_ID   = 67519
ELEMENT_SET_NO = 999
REV_AT_EPOCH   = 523
BSTAR          = -.21222E-1
MEAN_MOTION_DOT = -.1132514E-1
MEAN_MOTION_DDOT = 0

CCSDS_OMM_VERS = 2.0
CREATION_DATE  = 
ORIGINATOR     = 

OBJECT_NAME    = STARLINK-36547
OBJECT_ID      = 2026-012AD
CENTER_NAME    = EARTH
REF_FRAME      = TEME
TIME_SYSTEM    = UTC
MEAN_ELEMENT_THEORY = SGP/SGP4

EPOCH          = 2026-02-12T20:00:01.999008
MEAN_MOTION    = 15.50051443
ECCENTRICITY   = .0001587
INCLINATION    = 43.0008
RA_OF_ASC_NODE = 95.0572
ARG_OF_PERICENTER = 287.4558
MEAN_ANOMALY   = 194.1794

EPHEMERIS_TYPE = 0
CLASSIFICATION_TYPE = U
NORAD_CAT_ID   = 67520
ELEMENT_SET_NO = 999
REV_AT_EPOCH   = 501
BSTAR          = -.38093E-1
MEAN_MOTION_DOT = -.1963323E-1
MEAN_MOTION_DDOT = 0

CCSDS_OMM_VERS = 2.0
CREATION_DATE  = 
ORIGINATOR     = 

OBJECT_NAME    = STARLINK-36444
OBJECT_ID      = 2026-012AE
CENTER_NAME    = EARTH
REF_FRAME      = TEME
TIME_SYSTEM    = UTC
MEAN_ELEMENT_THEORY = SGP/SGP4

EPOCH          = 2026-02-12T20:00:01.999008
MEAN_MOTION    = 15.50985234
ECCENTRICITY   = .0001325
INCLINATION    = 43.0003
RA_OF_ASC_NODE = 95.1824
ARG_OF_PERICENTER = 298.0338
MEAN_ANOMALY   = 132.8176

EPHEMERIS_TYPE = 0
CLASSIFICATION_TYPE = U
NORAD_CAT_ID   = 67521
ELEMENT_SET_NO = 999
REV_AT_EPOCH   = 501
BSTAR          = -.23875E-1
MEAN_MOTION_DOT = -.1286095E-1
MEAN_MOTION_DDOT = 0

CCSDS_OMM_VERS = 2.0
CREATION_DATE  = 
ORIGINATOR     = 

OBJECT_NAME    = HULIANWANG DIGUI-146
OBJECT_ID      = 2026-013A
CENTER_NAME    = EARTH
REF_FRAME      = TEME
TIME_SYSTEM    = UTC
MEAN_ELEMENT_THEORY = SGP/SGP4

EPOCH          = 2026-02-11T08:20:06.010656
MEAN_MOTION    = 13.78804724
ECCENTRICITY   = .00032318
INCLINATION    = 50.0087
RA_OF_ASC_NODE = 93.2680
ARG_OF_PERICENTER = 354.9738
MEAN_ANOMALY   = 5.1123

EPHEMERIS_TYPE = 0
CLASSIFICATION_TYPE = U
NORAD_CAT_ID   = 67522
ELEMENT_SET_NO = 999
REV_AT_EPOCH   = 321
BSTAR          = .98638908E-4
MEAN_MOTION_DOT = -.41E-6
MEAN_MOTION_DDOT = 0

CCSDS_OMM_VERS = 2.0
CREATION_DATE  = 
ORIGINATOR     = 

OBJECT_NAME    = HULIANWANG DIGUI-147
OBJECT_ID      = 2026-013B
CENTER_NAME    = EARTH
REF_FRAME      = TEME
TIME_SYSTEM    = UTC
MEAN_ELEMENT_THEORY = SGP/SGP4

EPOCH          = 2026-02-12T01:41:54.279168
MEAN_MOTION    = 13.78106281
ECCENTRICITY   = .00014279
INCLINATION    = 50.0049
RA_OF_ASC_NODE = 90.4143
ARG_OF_PERICENTER = 24.4462
MEAN_ANOMALY   = 335.6498

EPHEMERIS_TYPE = 0
CLASSIFICATION_TYPE = U
NORAD_CAT_ID   = 67523
ELEMENT_SET_NO = 999
REV_AT_EPOCH   = 331
BSTAR          = .98544429E-4
MEAN_MOTION_DOT = -.42E-6
MEAN_MOTION_DDOT = 0

CCSDS_OMM_VERS = 2.0
CREATION_DATE  = 
ORIGINATOR     = 

OBJECT_NAME    = HULIANWANG DIGUI-148
OBJECT_ID      = 2026-013C
CENTER_NAME    = EARTH
REF_FRAME      = TEME
TIME_SYSTEM    = UTC
MEAN_ELEMENT_THEORY = SGP/SGP4

EPOCH          = 2026-02-12T03:19:27.681312
MEAN_MOTION    = 13.78242664
ECCENTRICITY   = .00004
INCLINATION    = 50.0082
RA_OF_ASC_NODE = 90.1254
ARG_OF_PERICENTER = 334.8113
MEAN_ANOMALY   = 25.2761

EPHEMERIS_TYPE = 0
CLASSIFICATION_TYPE = U
NORAD_CAT_ID   = 67524
ELEMENT_SET_NO = 999
REV_AT_EPOCH   = 332
BSTAR          = .11329E-3
MEAN_MOTION_DOT = -.27E-6
MEAN_MOTION_DDOT = 0

CCSDS_OMM_VERS = 2.0
CREATION_DATE  = 
ORIGINATOR     = 

OBJECT_NAME    = HULIANWANG DIGUI-149
OBJECT_ID      = 2026-013D
CENTER_NAME    = EARTH
REF_FRAME      = TEME
TIME_SYSTEM    = UTC
MEAN_ELEMENT_THEORY = SGP/SGP4

EPOCH          = 2026-02-12T01:29:49.913664
MEAN_MOTION    = 13.78784861
ECCENTRICITY   = .0001188
INCLINATION    = 50.0083
RA_OF_ASC_NODE = 90.3862
ARG_OF_PERICENTER = 75.5776
MEAN_ANOMALY   = 284.5250

EPHEMERIS_TYPE = 0
CLASSIFICATION_TYPE = U
NORAD_CAT_ID   = 67525
ELEMENT_SET_NO = 999
REV_AT_EPOCH   = 331
BSTAR          = .10607E-3
MEAN_MOTION_DOT = -.33E-6
MEAN_MOTION_DDOT = 0

CCSDS_OMM_VERS = 2.0
CREATION_DATE  = 
ORIGINATOR     = 

OBJECT_NAME    = HULIANWANG DIGUI-150
OBJECT_ID      = 2026-013E
CENTER_NAME    = EARTH
REF_FRAME      = TEME
TIME_SYSTEM    = UTC
MEAN_ELEMENT_THEORY = SGP/SGP4

EPOCH          = 2026-02-12T06:33:03.442464
MEAN_MOTION    = 13.78631848
ECCENTRICITY   = .0002156
INCLINATION    = 50.0069
RA_OF_ASC_NODE = 89.4842
ARG_OF_PERICENTER = 6.5718
MEAN_ANOMALY   = 353.5203

EPHEMERIS_TYPE = 0
CLASSIFICATION_TYPE = U
NORAD_CAT_ID   = 67526
ELEMENT_SET_NO = 999
REV_AT_EPOCH   = 336
BSTAR          = .10159E-3
MEAN_MOTION_DOT = -.38E-6
MEAN_MOTION_DDOT = 0

